ONEWEB-0634             
1 56075U 23043AF  25203.59249192 -.00000029  00000+0 -11142-3 0  9992
2 56075  87.9083 324.9510 0001692  90.6739 269.4585 13.15549446113068
ONEWEB-0635             
1 56076U 23043AG  25203.89196229 -.00000158  00000+0 -45341-3 0  9999
2 56076  87.9056 324.8675 0002064 107.2156 252.9201 13.15547267114042
ONEWEB-0636             
1 56077U 23043AH  25203.57981348  .00000063  00000+0  13358-3 0  9995
2 56077  87.9065 324.9420 0002038 105.4909 254.6446 13.15549950113072
ONEWEB-0637             
1 56078U 23043AJ  25203.57348199  .00000109  00000+0  25672-3 0  9990
2 56078  87.9080 324.9529 0001676 108.7965 251.3347 13.15547214114004
ONEWEB-0647             
1 56079U 23043AK  25203.56873101  .00000129  00000+0  30732-3 0  9991
2 56079  87.9083 324.9631 0002107 100.9096 259.2271 13.15549424113086
ONEWEB-0651             
1 56080U 23043AL  25203.64003513  .00000168  00000+0  41160-3 0  9994
2 56080  87.9085 324.9379 0001898 109.0636 251.0700 13.15549102114299
ONEWEB-0718             
1 56081U 23043AM  25203.63527742  .00000123  00000+0  29369-3 0  9997
2 56081  87.9084 324.9218 0001563  88.9597 271.1712 13.15549762113108
ONEWEB-0561             
1 56710U 23068A   25203.42844259  .00000112  00000+0  24350-3 0  9998
2 56710  87.9275 340.1523 0002259 106.6753 253.4629 13.20769199105973
